NORAD_CAT_ID,OBJECT_NAME,OBJECT_TYPE,EPOCH,MEAN_MOTION,ECCENTRICITY,INCLINATION,RA_OF_ASC_NODE,ARG_OF_PERICENTER,MEAN_ANOMALY,BSTAR,MEAN_MOTION_DOT,MEAN_MOTION_DDOT,TLE_LINE0,TLE_LINE1,TLE_LINE2,SEMIMAJOR_AXIS,PERIOD,APOGEE,PERIGEE,DECAYED
53906.0,STARLINK-5054,PAYLOAD,2024-08-07 17:11:17,15.08838553,0.0001258,53.2181,32.9516,87.3667,272.7469,3.3659e-05,2.48e-06,0.0,0 STARLINK-5054,1 53906U 22119W   24220.71616933  .00000248  00000-0  33659-4 0  9998,2 53906  53.2181  32.9516 0001258  87.3667 272.7469 15.08838553104002,6917.885,95.438,540.62,538.88,0.0
53906.0,STARLINK-5054,PAYLOAD,2024-08-08 18:37:26,15.08849404,0.0001479,53.2188,28.1943,70.35,289.7652,0.00012316,1.673e-05,0.0,0 STARLINK-5054,1 53906U 22119W   24221.77600568  .00001673  00000-0  12316-3 0  9991,2 53906  53.2188  28.1943 0001479  70.3500 289.7652 15.08849404104169,6917.852,95.437,540.74,538.693,0.0
53906.0,STARLINK-5054,PAYLOAD,2024-08-08 21:48:12,15.08856032,0.0001317,53.2183,27.5985,90.0133,270.101,0.000182,2.611e-05,0.0,0 STARLINK-5054,1 53906U 22119W   24221.90847865  .00002611  00000-0  18200-3 0  9990,2 53906  53.2183  27.5985 0001317  90.0133 270.1010 15.08856032104601,6917.831,95.437,540.607,538.785,0.0
53906.0,STARLINK-5054,PAYLOAD,2024-08-09 10:31:18,15.08839547,0.0001575,53.2176,25.2201,97.7477,262.3694,7.0216e-05,8.3e-06,0.0,0 STARLINK-5054,1 53906U 22119W   24222.43840960  .00000830  00000-0  70216-4 0  9995,2 53906  53.2176  25.2201 0001575  97.7477 262.3694 15.08839547104265,6917.882,95.438,540.836,538.657,0.0
53906.0,STARLINK-5054,PAYLOAD,2024-08-09 20:03:36,15.08861703,0.0001631,53.2187,23.4339,117.7004,242.4154,0.00039664,6.034e-05,0.0,0 STARLINK-5054,1 53906U 22119W   24222.83583617  .00006034  00000-0  39664-3 0  9995,2 53906  53.2187  23.4339 0001631 117.7004 242.4154 15.08861703104327,6917.814,95.436,540.807,538.551,0.0
53906.0,STARLINK-5054,PAYLOAD,2024-08-10 10:22:05,15.08832371,0.0001127,53.2189,20.7552,104.4641,255.6476,-0.00018579,-3.243e-05,0.0,0 STARLINK-5054,1 53906U 22119W   24223.43201162 -.00003243  00000-0 -18579-3 0  9997,2 53906  53.2189  20.7552 0001127 104.4641 255.6476 15.08832371104418,6917.904,95.438,540.548,538.989,0.0
53906.0,STARLINK-5054,PAYLOAD,2024-08-10 19:54:23,15.08853829,0.0001085,53.219,18.9713,90.7664,269.3452,0.00028069,4.184e-05,0.0,0 STARLINK-5054,1 53906U 22119W   24223.82944277  .00004184  00000-0  28069-3 0  9999,2 53906  53.2190  18.9713 0001085  90.7664 269.3452 15.08853829104476,6917.838,95.437,540.454,538.953,0.0
53906.0,STARLINK-5054,PAYLOAD,2024-08-11 03:51:19,15.08833981,9.88e-05,53.2183,17.4834,130.6791,229.4287,-4.7782e-05,-1.048e-05,0.0,0 STARLINK-5054,1 53906U 22119W   24224.16064768 -.00001048  00000-0 -47782-4 0  9997,2 53906  53.2183  17.4834 0000988 130.6791 229.4287 15.08833981104528,6917.899,95.438,540.447,539.08,0.0
53906.0,STARLINK-5054,PAYLOAD,2024-08-11 19:45:11,15.0884732,0.0001669,53.217,14.513,95.4466,264.6716,0.00027362,4.07e-05,0.0,0 STARLINK-5054,1 53906U 22119W   24224.82304830  .00004070  00000-0  27362-3 0  9994,2 53906  53.2170  14.5130 0001669  95.4466 264.6716 15.08847320104626,6917.858,95.437,540.878,538.568,0.0
53906.0,STARLINK-5054,PAYLOAD,2024-08-12 10:03:39,15.08845161,0.000193,53.2164,11.8385,81.9241,278.197,0.00015679,2.208e-05,0.0,0 STARLINK-5054,1 53906U 22119W   24225.41921202  .00002208  00000-0  15679-3 0  9997,2 53906  53.2164  11.8385 0001930  81.9241 278.1970 15.08845161104716,6917.865,95.437,541.065,538.394,0.0
53906.0,STARLINK-5054,PAYLOAD,2024-08-12 16:25:11,15.08878277,0.000296,53.2173,10.6473,98.9732,261.1595,0.0007448,0.00011598,0.0,0 STARLINK-5054,1 53906U 22119W   24225.68415774  .00011598  00000-0  74480-3 0  9995,2 53906  53.2173  10.6473 0002960  98.9732 261.1595 15.08878277104751,6917.763,95.435,541.676,537.581,0.0
53906.0,STARLINK-5054,PAYLOAD,2024-08-12 21:11:20,15.08879649,0.0001852,53.2169,9.7559,95.1973,264.9231,0.00077158,0.00012026,0.0,0 STARLINK-5054,1 53906U 22119W   24225.88287081  .00012026  00000-0  77158-3 0  9997,2 53906  53.2169   9.7559 0001852  95.1973 264.9231 15.08879649105208,6917.759,95.435,540.905,538.343,0.0
53906.0,STARLINK-5054,PAYLOAD,2024-08-13 09:54:26,15.08841054,0.0003845,53.2065,7.377,96.9678,263.1751,-5.9239e-05,-1.232e-05,0.0,0 STARLINK-5054,1 53906U 22119W   24226.41280766 -.00001232  00000-0 -59239-4 0  9990,2 53906  53.2065   7.3770 0003845  96.9678 263.1751 15.08841054104865,6917.877,95.437,542.402,537.082,0.0
53906.0,STARLINK-5054,PAYLOAD,2024-08-13 21:02:08,15.08839394,0.0002222,53.2184,5.2999,108.7356,251.3877,-6.1647e-05,-1.269e-05,0.0,0 STARLINK-5054,1 53906U 22119W   24226.87648777 -.00001269  00000-0 -61647-4 0  9996,2 53906  53.2184   5.2999 0002222 108.7356 251.3877 15.08839394105357,6917.882,95.438,541.284,538.21,0.0
53906.0,STARLINK-5054,PAYLOAD,2024-08-14 12:56:00,15.0883249,0.0001323,53.2185,2.3262,108.0545,252.0592,-3.3191e-05,-8.16e-06,0.0,0 STARLINK-5054,1 53906U 22119W   24227.53889128 -.00000816  00000-0 -33191-4 0  9997,2 53906  53.2185   2.3262 0001323 108.0545 252.0592 15.08832490105030,6917.903,95.438,540.684,538.853,0.0
53906.0,STARLINK-5054,PAYLOAD,2024-08-14 14:31:23,15.08833827,0.0001394,53.2183,2.0289,109.4288,250.6855,2.6378e-05,1.32e-06,0.0,0 STARLINK-5054,1 53906U 22119W   24227.60513170  .00000132  00000-0  26378-4 0  9994,2 53906  53.2183   2.0289 0001394 109.4288 250.6855 15.08833827105469,6917.899,95.438,540.729,538.8,0.0
53906.0,STARLINK-5054,PAYLOAD,2024-08-14 16:06:46,15.08838227,0.000146,53.2191,1.7325,102.2049,257.9107,0.0001307,1.793e-05,0.0,0 STARLINK-5054,1 53906U 22119W   24227.67137115  .00001793  00000-0  13070-3 0  9990,2 53906  53.2191   1.7325 0001460 102.2049 257.9107 15.08838227105475,6917.886,95.438,540.761,538.741,0.0
53906.0,STARLINK-5054,PAYLOAD,2024-08-15 15:57:34,15.08832597,0.0001354,53.2182,357.2712,106.2067,253.9075,0.00011783,1.587e-05,0.0,0 STARLINK-5054,1 53906U 22119W   24228.66497934  .00001587  00000-0  11783-3 0  9998,2 53906  53.2182 357.2712 0001354 106.2067 253.9075 15.08832597105205,6917.903,95.438,540.705,538.831,0.0
53906.0,STARLINK-5054,PAYLOAD,2024-08-16 01:29:52,15.08840648,0.0001129,53.2183,355.4862,97.8913,262.2208,0.00018776,2.702e-05,0.0,0 STARLINK-5054,1 53906U 22119W   24229.06241791  .00002702  00000-0  18776-3 0  9990,2 53906  53.2183 355.4862 0001129  97.8913 262.2208 15.08840648105686,6917.878,95.438,540.524,538.962,0.0
53906.0,STARLINK-5054,PAYLOAD,2024-08-17 04:31:26,15.08836963,0.0001272,53.2185,350.4316,93.5888,266.525,0.00010042,1.311e-05,0.0,0 STARLINK-5054,1 53906U 22119W   24230.18850340  .00001311  00000-0  10042-3 0  9994,2 53906  53.2185 350.4316 0001272  93.5888 266.5250 15.08836963105432,6917.89,95.438,540.635,538.875,0.0
53906.0,STARLINK-5054,PAYLOAD,2024-08-17 07:42:12,15.08836794,0.0001204,53.2169,349.8345,84.5318,275.5811,9.2793e-05,1.189e-05,0.0,0 STARLINK-5054,1 53906U 22119W   24230.32098377  .00001189  00000-0  92793-4 0  9991,2 53906  53.2169 349.8345 0001204  84.5318 275.5811 15.08836794105874,6917.89,95.438,540.588,538.922,0.0
53906.0,STARLINK-5054,PAYLOAD,2024-08-17 20:25:18,15.08819797,0.0001056,53.2161,347.4568,80.5994,279.5118,-0.00045729,-7.554e-05,0.0,0 STARLINK-5054,1 53906U 22119W   24230.85091008 -.00007554  00000-0 -45729-3 0  9993,2 53906  53.2161 347.4568 0001056  80.5994 279.5118 15.08819797105539,6917.942,95.439,540.538,539.077,0.0
53906.0,STARLINK-5054,PAYLOAD,2024-08-18 12:19:09,15.08860631,0.0001127,53.2173,344.4838,90.1595,269.9527,0.00060776,9.403e-05,0.0,0 STARLINK-5054,1 53906U 22119W   24231.51329870  .00009403  00000-0  60776-3 0  9990,2 53906  53.2173 344.4838 0001127  90.1595 269.9527 15.08860631105633,6917.817,95.436,540.462,538.903,0.0
53906.0,STARLINK-5054,PAYLOAD,2024-08-18 13:54:32,15.08852816,0.0001366,53.2172,344.1869,74.8678,285.2465,0.00062976,9.752e-05,0.0,0 STARLINK-5054,1 53906U 22119W   24231.57954211  .00009752  00000-0  62976-3 0  9990,2 53906  53.2172 344.1869 0001366  74.8678 285.2465 15.08852816106065,6917.841,95.437,540.651,538.761,0.0
53906.0,STARLINK-5054,PAYLOAD,2024-08-19 10:34:33,15.08845003,0.0001414,53.2167,340.3267,67.8366,292.2776,0.00014847,2.076e-05,0.0,0 STARLINK-5054,1 53906U 22119W   24232.44066397  .00002076  00000-0  14847-3 0  9992,2 53906  53.2167 340.3267 0001414  67.8366 292.2776 15.08845003105779,6917.865,95.437,540.708,538.752,0.0
53906.0,STARLINK-5054,PAYLOAD,2024-08-19 13:45:19,15.088449,0.0001435,53.217,339.7281,84.5138,275.6018,0.00021594,3.151e-05,0.0,0 STARLINK-5054,1 53906U 22119W   24232.57314449  .00003151  00000-0  21594-3 0  9992,2 53906  53.2170 339.7281 0001435  84.5138 275.6018 15.08844900106216,6917.865,95.437,540.723,538.738,0.0
53906.0,STARLINK-5054,PAYLOAD,2024-08-20 12:00:42,15.08866257,0.0001433,53.2166,335.5633,90.657,269.4587,0.00037219,5.645e-05,0.0,0 STARLINK-5054,1 53906U 22119W   24233.50048837  .00005645  00000-0  37219-3 0  9992,2 53906  53.2166 335.5633 0001433  90.6570 269.4587 15.08866257105931,6917.8,95.436,540.656,538.674,0.0
53906.0,STARLINK-5054,PAYLOAD,2024-08-20 13:36:05,15.08871246,0.0001485,53.2172,335.2653,94.1136,266.0025,0.00046743,7.165e-05,0.0,0 STARLINK-5054,1 53906U 22119W   24233.56672580  .00007165  00000-0  46743-3 0  9997,2 53906  53.2172 335.2653 0001485  94.1136 266.0025 15.08871246106363,6917.785,95.436,540.677,538.623,0.0
53906.0,STARLINK-5054,PAYLOAD,2024-08-21 11:51:30,15.08836421,0.0001441,53.2176,331.1074,105.1494,254.9658,-0.00011182,-2.067e-05,0.0,0 STARLINK-5054,1 53906U 22119W   24234.49409862 -.00002067  00000-0 -11182-3 0  9998,2 53906  53.2176 331.1074 0001441 105.1494 254.9658 15.08836421106084,6917.891,95.438,540.753,538.759,0.0
53906.0,STARLINK-5054,PAYLOAD,2024-08-21 13:26:53,15.0883163,0.0001237,53.217,330.8098,82.9224,277.1908,-0.00018022,-3.154e-05,0.0,0 STARLINK-5054,1 53906U 22119W   24234.56034121 -.00003154  00000-0 -18022-3 0  9996,2 53906  53.2170 330.8098 0001237  82.9224 277.1908 15.08831630106516,6917.906,95.438,540.627,538.915,0.0
